NORAD_CAT_ID,OBJECT_NAME,OBJECT_TYPE,EPOCH,MEAN_MOTION,ECCENTRICITY,INCLINATION,RA_OF_ASC_NODE,ARG_OF_PERICENTER,MEAN_ANOMALY,BSTAR,MEAN_MOTION_DOT,MEAN_MOTION_DDOT,TLE_LINE0,TLE_LINE1,TLE_LINE2,SEMIMAJOR_AXIS,PERIOD,APOGEE,PERIGEE,DECAYED
53720.0,STARLINK-4642,PAYLOAD,2022-10-28 14:00:01,15.49537774,0.0001434,53.2173,9.4534,51.2614,196.4707,-0.018327,-0.00943108,0.0,0 STARLINK-4642,1 53720U 22107W   22301.58335648 -.00943108  00000-0 -18327-1 0  9998,2 53720  53.2173   9.4534 0001434  51.2614 196.4707 15.49537774  1306,6796.214,92.931,419.054,417.105,0.0
53720.0,STARLINK-4642,PAYLOAD,2022-10-28 22:00:01,15.4885695,0.0001506,53.2171,7.8597,33.56,274.2697,-0.0228139999999999,-0.01143013,0.0,0 STARLINK-4642,1 53720U 22107W   22301.91668981 -.01143013  00000-0 -22814-1 0  9998,2 53720  53.2171   7.8597 0001506  33.5600 274.2697 15.48856950  1305,6798.206,92.972,421.095,419.047,0.0
53720.0,STARLINK-4642,PAYLOAD,2022-10-29 08:00:01,15.47827435,0.0005059999999999,53.2174,5.8733,276.6362,194.9581,-0.023186,-0.01107427,0.0,0 STARLINK-4642,1 53720U 22107W   22302.33334491 -.01107427  00000-0 -23186-1 0  9993,2 53720  53.2174   5.8733 0005060 276.6362 194.9581 15.47827435  8630,6801.22,93.034,426.526,419.643,0.0
53720.0,STARLINK-4642,PAYLOAD,2022-10-29 12:00:00,15.47408075,0.0001465999999999,53.217,5.0803,39.6101,281.0941,-0.023273,-0.01095207,0.0,0 STARLINK-4642,1 53720U 22107W   22302.50001157 -.01095207  00000-0 -23273-1 0  9991,2 53720  53.2170   5.0803 0001466  39.6101 281.0941 15.47408075  1300,6802.449000000001,93.059,425.311,423.316,0.0
53720.0,STARLINK-4642,PAYLOAD,2022-10-29 22:00:01,15.46414739,0.0001749,53.2174,3.0965,36.2451,86.1967,-0.02481,-0.01141324,0.0,0 STARLINK-4642,1 53720U 22107W   22302.91668981 -.01141324  00000-0 -24810-1 0  9990,2 53720  53.2174   3.0965 0001749  36.2451  86.1967 15.46414739  1301,6805.361,93.119,428.417,426.036,0.0
53720.0,STARLINK-4642,PAYLOAD,2022-10-30 00:00:00,15.46211076,0.0001643,53.2175,2.7,42.2733,184.2576,-0.024955,-0.01139999,0.0,0 STARLINK-4642,1 53720U 22107W   22303.00001157 -.01139999  00000-0 -24955-1 0  9992,2 53720  53.2175   2.7000 0001643  42.2733 184.2576 15.46211076  8730,6805.959,93.131,428.942,426.706,0.0
53720.0,STARLINK-4642,PAYLOAD,2022-10-30 14:00:01,15.44785597,0.0001685,53.2173,359.9325,44.4333,189.4614,-0.0261519999999999,-0.01137584,0.0,0 STARLINK-4642,1 53720U 22107W   22303.58334491 -.01137584  00000-0 -26152-1 0  9994,2 53720  53.2173 359.9325 0001685  44.4333 189.4614 15.44785597  1309,6810.145,93.217,433.158,430.86300000000006,0.0
53720.0,STARLINK-4642,PAYLOAD,2022-10-30 22:00:01,15.4397548,0.0001594,53.2175,358.3508,38.6089,249.6423,-0.027051,-0.011439,0.0,0 STARLINK-4642,1 53720U 22107W   22303.91668981 -.01143900  00000-0 -27051-1 0  9993,2 53720  53.2175 358.3508 0001594  38.6089 249.6423 15.43975480  1307,6812.526999999999,93.266,435.478,433.306,0.0
53720.0,STARLINK-4642,PAYLOAD,2022-10-31 14:00:01,15.42348704,0.0001631,53.2169,355.1986,37.5128,356.3233,-0.028586,-0.01143888,0.0,0 STARLINK-4642,1 53720U 22107W   22304.58334491 -.01143888  00000-0 -28586-1 0  9992,2 53720  53.2169 355.1986 0001631  37.5128 356.3233 15.42348704  1306,6817.316999999999,93.364,440.293,438.07,0.0
53720.0,STARLINK-4642,PAYLOAD,2022-10-31 22:00:01,15.41531489,0.0001788,53.2172,353.6227,33.2896,51.9725,-0.029258,-0.0113947,0.0,0 STARLINK-4642,1 53720U 22107W   22304.91668981 -.01139470  00000-0 -29258-1 0  9992,2 53720  53.2172 353.6227 0001788  33.2896  51.9725 15.41531489  9034,6819.726,93.414,442.81,440.371,0.0
53720.0,STARLINK-4642,PAYLOAD,2022-11-01 14:00:01,15.39907632,0.0001796,53.2168,350.4821,43.1448,141.8332,-0.030968,-0.01142187,0.0,0 STARLINK-4642,1 53720U 22107W   22305.58334491 -.01142187  00000-0 -30968-1 0  9991,2 53720  53.2168 350.4821 0001796  43.1448 141.8332 15.39907632  1305,6824.519,93.512,447.61,445.159,0.0
53720.0,STARLINK-4642,PAYLOAD,2022-11-01 22:00:00,15.39090572,0.0001686999999999,53.2175,348.912,41.3641,192.0421,-0.031699,-0.01138281,0.0,0 STARLINK-4642,1 53720U 22107W   22305.91667824 -.01138281  00000-0 -31699-1 0  9999,2 53720  53.2175 348.9120 0001687  41.3641 192.0421 15.39090572  1304,6826.934,93.562,449.951,447.648,0.0
53720.0,STARLINK-4642,PAYLOAD,2022-11-02 14:00:01,15.37462861,0.0001656,53.2173,345.7832,34.8595,292.4622,-0.033404,-0.01137176,0.0,0 STARLINK-4642,1 53720U 22107W   22306.58334491 -.01137176  00000-0 -33404-1 0  9992,2 53720  53.2173 345.7832 0001656  34.8595 292.4622 15.37462861  9283,6831.752,93.661,454.74800000000016,452.486,0.0
53720.0,STARLINK-4642,PAYLOAD,2022-11-02 22:00:00,15.36649117,0.0001619,53.2174,344.2187,33.7357,339.0791,-0.034334,-0.01138162,0.0,0 STARLINK-4642,1 53720U 22107W   22306.91667824 -.01138162  00000-0 -34334-1 0  9997,2 53720  53.2174 344.2187 0001619  33.7357 339.0791 15.36649117  1304,6834.1640000000025,93.71,457.135,454.922,0.0
53720.0,STARLINK-4642,PAYLOAD,2022-11-03 06:00:02,15.35856042,0.000179,53.2169,342.6583,35.1684,22.2146,-0.036223,-0.01167538,0.0,0 STARLINK-4642,1 53720U 22107W   22307.25002315 -.01167538  00000-0 -36223-1 0  9991,2 53720  53.2169 342.6583 0001790  35.1684  22.2146 15.35856042  9397,6836.516,93.759,459.605,457.157,0.0
53720.0,STARLINK-4642,PAYLOAD,2022-11-03 14:00:01,15.35022553,0.0001789,53.2168,341.1012,37.5238,63.3388,-0.036183,-0.01138097,0.0,0 STARLINK-4642,1 53720U 22107W   22307.58334491 -.01138097  00000-0 -36183-1 0  9993,2 53720  53.2168 341.1012 0001789  37.5238  63.3388 15.35022553  1305,6838.991,93.81,462.079,459.632,0.0
53720.0,STARLINK-4642,PAYLOAD,2022-11-03 22:00:00,15.34207095,0.0001681,53.2174,339.5429,42.2196,101.2029,-0.03707,-0.01136071,0.0,0 STARLINK-4642,1 53720U 22107W   22307.91667824 -.01136071  00000-0 -37070-1 0  9995,2 53720  53.2174 339.5429 0001681  42.2196 101.2029 15.34207095  1301,6841.4140000000025,93.86,464.429,462.129,0.0
53720.0,STARLINK-4642,PAYLOAD,2022-11-04 14:00:01,15.32579664,0.0001698,53.2173,336.4371,44.0695,181.5341,-0.039008,-0.0113524,0.0,0 STARLINK-4642,1 53720U 22107W   22308.58334491 -.01135240  00000-0 -39008-1 0  9990,2 53720  53.2173 336.4371 0001698  44.0695 181.5341 15.32579664  9593,6846.255999999999,93.959,469.284,466.959,0.0
53720.0,STARLINK-4642,PAYLOAD,2022-11-04 22:00:01,15.3177438,0.0001868,53.2171,334.8841,33.9259,231.363,-0.040451,-0.01146648,0.0,0 STARLINK-4642,1 53720U 22107W   22308.91668981 -.01146648  00000-0 -40451-1 0  9999,2 53720  53.2171 334.8841 0001868  33.9259 231.3630 15.31774380  1304,6848.655,94.009,471.8,469.241,0.0
53720.0,STARLINK-4642,PAYLOAD,2022-11-05 14:00:01,15.30162749,0.0001704,53.2168,331.7897,30.2412,311.3546,-0.043431,-0.0116834,0.0,0 STARLINK-4642,1 53720U 22107W   22309.58335648 -.01168340  00000-0 -43431-1 0  9998,2 53720  53.2168 331.7897 0001704  30.2412 311.3546 15.30162749  9747,6853.4630000000025,94.108,476.496,474.16,0.0
53720.0,STARLINK-4642,PAYLOAD,2022-11-05 22:00:01,15.29393084,0.0003925,53.2169,330.2428,279.9392,98.3263,-0.047039,-0.01247373,0.0,0 STARLINK-4642,1 53720U 22107W   22309.91668981 -.01247373  00000-0 -47039-1 0  9996,2 53720  53.2169 330.2428 0003925 279.9392  98.3263 15.29393084  1306,6855.762,94.155,480.318,474.937,0.0
53720.0,STARLINK-4642,PAYLOAD,2022-11-06 14:00:01,15.27740063,0.0001817,53.2163,327.1598,39.546,49.1148,-0.047808,-0.01207516,0.0,0 STARLINK-4642,1 53720U 22107W   22310.58334491 -.01207516  00000-0 -47808-1 0  9996,2 53720  53.2163 327.1598 0001817  39.5460  49.1148 15.27740063  1304,6860.706999999999,94.257,483.818,481.325,0.0
53720.0,STARLINK-4642,PAYLOAD,2022-11-06 22:00:00,15.26886295,0.0001849,53.2168,325.6188,38.432,84.008,-0.046745,-0.01139376,0.0,0 STARLINK-4642,1 53720U 22107W   22310.91667824 -.01139376  00000-0 -46745-1 0  9999,2 53720  53.2168 325.6188 0001849  38.4320  84.0080 15.26886295  9954,6863.264,94.31,486.398,483.86,0.0
53720.0,STARLINK-4642,PAYLOAD,2022-11-07 22:00:00,15.24442309,0.0001684,53.2173,321.012,46.9484,170.8977,-0.050141,-0.01150363,0.0,0 STARLINK-4642,1 53720U 22107W   22311.91667824 -.01150363  00000-0 -50141-1 0  9994,2 53720  53.2173 321.0120 0001684  46.9484 170.8977 15.24442309  1300,6870.598000000001,94.461,493.62,491.306,0.0
53720.0,STARLINK-4642,PAYLOAD,2022-11-08 00:00:02,15.24255939,0.0001569,53.2164,320.6283,45.4202,270.0331,-0.051439,-0.01171738,0.0,0 STARLINK-4642,1 53720U 22107W   22312.00002315 -.01171738  00000-0 -51439-1 0  9993,2 53720  53.2164 320.6283 0001569  45.4202 270.0331 15.24255939 10116,6871.158,94.472,494.101,491.945,0.0
53720.0,STARLINK-4642,PAYLOAD,2022-11-08 14:00:01,15.22851734,0.0001723,53.2159,317.9516,44.3449,232.1955,-0.055053,-0.01200071,0.0,0 STARLINK-4642,1 53720U 22107W   22312.58334491 -.01200071  00000-0 -55053-1 0  9998,2 53720  53.2159 317.9516 0001723  44.3449 232.1955 15.22851734  1306,6875.380999999999,94.559,498.43,496.061,0.0
53720.0,STARLINK-4642,PAYLOAD,2022-11-08 22:00:00,15.22022944,0.0001688,53.2163,316.4221,40.4122,264.0267,-0.0553669999999999,-0.01179295,0.0,0 STARLINK-4642,1 53720U 22107W   22312.91667824 -.01179295  00000-0 -55367-1 0  9995,2 53720  53.2163 316.4221 0001688  40.4122 264.0267 15.22022944  1306,6877.877,94.611,500.903,498.581,0.0
53720.0,STARLINK-4642,PAYLOAD,2022-11-09 06:00:00,15.21205523,0.0001425,53.2165,314.897,52.1186,279.2338,-0.056442,-0.01173873,0.0,0 STARLINK-4642,1 53720U 22107W   22313.25001157 -.01173873  00000-0 -56442-1 0  9995,2 53720  53.2165 314.8970 0001425  52.1186 279.2338 15.21205523 10302,6880.34,94.662,503.186,501.225,0.0
53720.0,STARLINK-4642,PAYLOAD,2022-11-09 14:00:01,15.20468568,0.0001779,53.2159,313.3732,30.2563,326.9908,-0.063178,-0.01276371,0.0,0 STARLINK-4642,1 53720U 22107W   22313.58334491 -.01276371  00000-0 -63178-1 0  9992,2 53720  53.2159 313.3732 0001779  30.2563 326.9908 15.20468568  1305,6882.563,94.708,505.653,503.204,0.0
